NORAD_CAT_ID,OBJECT_NAME,OBJECT_TYPE,EPOCH,MEAN_MOTION,ECCENTRICITY,INCLINATION,RA_OF_ASC_NODE,ARG_OF_PERICENTER,MEAN_ANOMALY,BSTAR,MEAN_MOTION_DOT,MEAN_MOTION_DDOT,TLE_LINE0,TLE_LINE1,TLE_LINE2,SEMIMAJOR_AXIS,PERIOD,APOGEE,PERIGEE,DECAYED
52089.0,STARLINK-3722,PAYLOAD,2023-12-25 14:38:11,15.08844581,0.0001348,53.2162,103.2658,87.32,272.7946,9.9506e-05,1.296e-05,0.0,0 STARLINK-3722,1 52089U 22029B   23359.60984959  .00001296  00000-0  99506-4 0  9992,2 52089  53.2162 103.2658 0001348  87.3200 272.7946 15.08844581 99117,6917.866,95.437,540.664,538.799,0.0
52089.0,STARLINK-3722,PAYLOAD,2023-12-26 11:18:12,15.08835889,0.0001467,53.2161,99.4016,72.8115,287.3037,-7.3337e-06,-4.05e-06,0.0,0 STARLINK-3722,1 52089U 22029B   23360.47097707 -.00000405  00000-0 -73337-5 0  9993,2 52089  53.2161  99.4016 0001467  72.8115 287.3037 15.08835889 99244,6917.893,95.438,540.773,538.743,0.0
52089.0,STARLINK-3722,PAYLOAD,2023-12-26 12:53:35,15.08835961,0.0001497,53.2162,99.1043,70.0579,290.0574,2.3924e-05,9.3e-07,0.0,0 STARLINK-3722,1 52089U 22029B   23360.53721736  .00000093  00000-0  23924-4 0  9993,2 52089  53.2162  99.1043 0001497  70.0579 290.0574 15.08835961 99258,6917.893,95.438,540.793,538.722,0.0
52089.0,STARLINK-3722,PAYLOAD,2023-12-26 16:04:21,15.08844794,0.0001375,53.2169,98.5073,92.5651,267.5499,3.984e-05,3.46e-06,0.0,0 STARLINK-3722,1 52089U 22029B   23360.66969224  .00000346  00000-0  39840-4 0  9998,2 52089  53.2169  98.5073 0001375  92.5651 267.5499 15.08844794 99277,6917.866,95.437,540.682,538.78,0.0
52089.0,STARLINK-3722,PAYLOAD,2023-12-27 11:08:59,15.08838148,0.0001235,53.2163,94.9405,110.0356,250.0769,0.00013387,1.843e-05,0.0,0 STARLINK-3722,1 52089U 22029B   23361.46457610  .00001843  00000-0  13387-3 0  9998,2 52089  53.2163  94.9405 0001235 110.0356 250.0769 15.08838148 99399,6917.886,95.438,540.605,538.897,0.0
52089.0,STARLINK-3722,PAYLOAD,2023-12-27 12:44:22,15.08845714,0.000141,53.2169,94.6441,76.4519,283.663,0.00010348,1.36e-05,0.0,0 STARLINK-3722,1 52089U 22029B   23361.53081403  .00001360  00000-0  10348-3 0  9997,2 52089  53.2169  94.6441 0001410  76.4519 283.6630 15.08845714 99401,6917.863,95.437,540.703,538.753,0.0
52089.0,STARLINK-3722,PAYLOAD,2023-12-28 10:59:43,15.08890201,0.0001215,53.2168,90.4779,85.5929,274.5202,0.00076164,0.00011871,0.0,0 STARLINK-3722,1 52089U 22029B   23362.45814776  .00011871  00000-0  76164-3 0  9992,2 52089  53.2168  90.4779 0001215  85.5929 274.5202 15.08890201 99547,6917.727,95.434,540.432,538.751,0.0
52089.0,STARLINK-3722,PAYLOAD,2023-12-28 12:35:09,15.08832162,0.0001445,53.2163,90.1815,109.4077,250.7071,-0.00011144,-2.061e-05,0.0,0 STARLINK-3722,1 52089U 22029B   23362.52441224 -.00002061  00000-0 -11144-3 0  9994,2 52089  53.2163  90.1815 0001445 109.4077 250.7071 15.08832162 99558,6917.904,95.438,540.769,538.77,0.0
52089.0,STARLINK-3722,PAYLOAD,2023-12-29 10:50:33,15.08837779,0.0001514,53.2165,86.0143,98.6511,261.4653,-0.00011087,-2.052e-05,0.0,0 STARLINK-3722,1 52089U 22029B   23363.45177303 -.00002052  00000-0 -11087-3 0  9997,2 52089  53.2165  86.0143 0001514  98.6511 261.4653 15.08837779 99696,6917.887,95.438,540.8,538.705,0.0
52089.0,STARLINK-3722,PAYLOAD,2023-12-29 17:12:05,15.08845119,0.000152,53.2166,84.8248,91.3271,268.7895,2.1858e-05,6e-07,0.0,0 STARLINK-3722,1 52089U 22029B   23363.71672961  .00000060  00000-0  21858-4 0  9999,2 52089  53.2166  84.8248 0001520  91.3271 268.7895 15.08845119 99739,6917.865,95.437,540.781,538.678,0.0
52089.0,STARLINK-3722,PAYLOAD,2023-12-30 12:16:43,15.08848119,0.0001468,53.2163,81.2615,96.3371,263.7789,-0.0002411,-4.124e-05,0.0,0 STARLINK-3722,1 52089U 22029B   23364.51160965 -.00004124  00000-0 -24110-3 0  9994,2 52089  53.2163  81.2615 0001468  96.3371 263.7789 15.08848119 99855,6917.856,95.437,540.736,538.705,0.0
52089.0,STARLINK-3722,PAYLOAD,2023-12-31 04:10:35,15.08828431,0.0001507,53.2164,78.2859,90.4793,269.6372,9.0416e-05,1.151e-05,0.0,0 STARLINK-3722,1 52089U 22029B   23365.17402637  .00001151  00000-0  90416-4 0  9990,2 52089  53.2164  78.2859 0001507  90.4793 269.6372 15.08828431 99958,6917.916,95.438,540.823,538.738,0.0
52089.0,STARLINK-3722,PAYLOAD,2023-12-31 13:42:54,15.08835439,0.0001521,53.2168,76.5036,88.6297,271.487,0.00015115,2.118e-05,0.0,0 STARLINK-3722,1 52089U 22029B   23365.57146501  .00002118  00000-0  15115-3 0  9995,2 52089  53.2168  76.5036 0001521  88.6297 271.4870 15.08835439100014,6917.894,95.438,540.812,538.707,0.0
52089.0,STARLINK-3722,PAYLOAD,2024-01-01 11:58:18,15.0884217,0.0001482,53.2168,72.3396,88.2711,271.8451,0.00014746,2.06e-05,0.0,0 STARLINK-3722,1 52089U 22029B   24001.49882477  .00002060  00000-0  14746-3 0  9998,2 52089  53.2168  72.3396 0001482  88.2711 271.8451 15.08842170100154,6917.874,95.437,540.764,538.714,0.0
52089.0,STARLINK-3722,PAYLOAD,2024-01-02 03:52:10,15.08838238,0.0001631,53.2173,69.3687,92.4335,267.6843,0.0002441,3.599e-05,0.0,0 STARLINK-3722,1 52089U 22029B   24002.16122850  .00003599  00000-0  24410-3 0  9992,2 52089  53.2173  69.3687 0001631  92.4335 267.6843 15.08838238100253,6917.886,95.438,540.879,538.622,0.0
52089.0,STARLINK-3722,PAYLOAD,2024-01-02 11:49:05,15.0884421,0.000153,53.2168,67.8814,86.7156,273.4011,0.00024894,3.677e-05,0.0,0 STARLINK-3722,1 52089U 22029B   24002.49242627  .00003677  00000-0  24894-3 0  9996,2 52089  53.2168  67.8814 0001530  86.7156 273.4011 15.08844210100302,6917.868,95.437,540.791,538.674,0.0
52089.0,STARLINK-3722,PAYLOAD,2024-01-03 11:39:53,15.08838932,0.0001441,53.2175,63.4202,82.4551,277.6605,2.0314e-05,3.5e-07,0.0,0 STARLINK-3722,1 52089U 22029B   24003.48603287  .00000035  00000-0  20314-4 0  9998,2 52089  53.2175  63.4202 0001441  82.4551 277.6605 15.08838932100451,6917.884,95.438,540.746,538.752,0.0
52089.0,STARLINK-3722,PAYLOAD,2024-01-04 09:55:16,15.08849008,0.0001498,53.2166,59.2564,82.1549,277.9613,0.00012966,1.777e-05,0.0,0 STARLINK-3722,1 52089U 22029B   24004.41338334  .00001777  00000-0  12966-3 0  9997,2 52089  53.2166  59.2564 0001498  82.1549 277.9613 15.08849008100594,6917.853,95.437,540.754,538.682,0.0
52089.0,STARLINK-3722,PAYLOAD,2024-01-04 13:06:02,15.08853535,0.0001337,53.2166,58.6606,87.2811,272.8334,0.00013287,1.828e-05,0.0,0 STARLINK-3722,1 52089U 22029B   24004.54585929  .00001828  00000-0  13287-3 0  9999,2 52089  53.2166  58.6606 0001337  87.2811 272.8334 15.08853535100611,6917.839,95.437,540.629,538.779,0.0
52089.0,STARLINK-3722,PAYLOAD,2024-01-05 03:24:31,15.08835341,0.0001301,53.2186,55.9783,131.0662,229.0443,0.00018893,2.72e-05,0.0,0 STARLINK-3722,1 52089U 22029B   24005.14202926  .00002720  00000-0  18893-3 0  9999,2 52089  53.2186  55.9783 0001301 131.0662 229.0443 15.08835341100702,6917.895,95.438,540.66,538.86,0.0
52089.0,STARLINK-3722,PAYLOAD,2024-01-05 09:46:03,15.08839599,0.0001445,53.2169,54.7959,82.6351,277.4805,0.00014609,2.038e-05,0.0,0 STARLINK-3722,1 52089U 22029B   24005.40698955  .00002038  00000-0  14609-3 0  9992,2 52089  53.2169  54.7959 0001445  82.6351 277.4805 15.08839599100742,6917.882,95.438,540.746,538.747,0.0
52089.0,STARLINK-3722,PAYLOAD,2024-01-06 09:36:50,15.08843496,0.0001603,53.217,50.3355,103.5942,256.5229,6.5495e-05,7.55e-06,0.0,0 STARLINK-3722,1 52089U 22029B   24006.40058704  .00000755  00000-0  65495-4 0  9999,2 52089  53.2170  50.3355 0001603 103.5942 256.5229 15.08843496100896,6917.87,95.437,540.844,538.626,0.0
52089.0,STARLINK-3722,PAYLOAD,2024-01-07 03:06:05,15.08837252,0.0001566,53.2178,47.066,97.8625,262.2545,7.9913e-05,9.84e-06,0.0,0 STARLINK-3722,1 52089U 22029B   24007.12923090  .00000984  00000-0  79913-4 0  9992,2 52089  53.2178  47.0660 0001566  97.8625 262.2545 15.08837252101009,6917.889,95.438,540.837,538.67,0.0
52089.0,STARLINK-3722,PAYLOAD,2024-01-07 07:52:14,15.08839661,0.0001476,53.218,46.1755,88.8658,271.2503,0.00010128,1.324e-05,0.0,0 STARLINK-3722,1 52089U 22029B   24007.32794962  .00001324  00000-0  10128-3 0  9999,2 52089  53.2180  46.1755 0001476  88.8658 271.2503 15.08839661101036,6917.881,95.438,540.768,538.725,0.0
52089.0,STARLINK-3722,PAYLOAD,2024-01-08 10:53:48,15.08838273,0.0001477,53.2179,41.1186,97.1936,262.9224,5.9673e-05,6.62e-06,0.0,0 STARLINK-3722,1 52089U 22029B   24008.45403245  .00000662  00000-0  59673-4 0  9998,2 52089  53.2179  41.1186 0001477  97.1936 262.9224 15.08838273101204,6917.886,95.438,540.772,538.729,0.0
52089.0,STARLINK-3722,PAYLOAD,2024-01-09 10:44:34,15.0887466,0.000183,53.2183,36.6605,110.809,249.3098,-0.00028754,-4.866e-05,0.0,0 STARLINK-3722,1 52089U 22029B   24009.44761731 -.00004866  00000-0 -28754-3 0  9992,2 52089  53.2183  36.6605 0001830 110.8090 249.3098 15.08874660101355,6917.774,95.435,540.905,538.373,0.0
52089.0,STARLINK-3722,PAYLOAD,2024-01-09 23:27:40,15.08836658,0.0001632,53.2184,34.2813,110.5607,249.556,9.7725e-05,1.267e-05,0.0,0 STARLINK-3722,1 52089U 22029B   24009.97755491  .00001267  00000-0  97725-4 0  9991,2 52089  53.2184  34.2813 0001632 110.5607 249.5560 15.08836658101432,6917.891,95.438,540.885,538.627,0.0
52089.0,STARLINK-3722,PAYLOAD,2024-01-10 10:35:22,15.08841541,0.0001402,53.2177,32.194,85.9526,274.1626,0.00011772,1.586e-05,0.0,0 STARLINK-3722,1 52089U 22029B   24010.44123197  .00001586  00000-0  11772-3 0  9998,2 52089  53.2177  32.1940 0001402  85.9526 274.1626 15.08841541101504,6917.876,95.437,540.711,538.771,0.0
52089.0,STARLINK-3722,PAYLOAD,2024-01-11 00:53:50,15.08842647,0.000156,53.2177,29.523,99.7648,260.352,6.7478e-05,7.86e-06,0.0,0 STARLINK-3722,1 52089U 22029B   24011.03739337  .00000786  00000-0  67478-4 0  9999,2 52089  53.2177  29.5230 0001560  99.7648 260.3520 15.08842647101596,6917.872,95.437,540.816,538.658,0.0
52089.0,STARLINK-3722,PAYLOAD,2024-01-11 08:50:46,15.08844657,0.000158,53.2181,28.0346,82.6742,277.4429,7.636e-05,9.28e-06,0.0,0 STARLINK-3722,1 52089U 22029B   24011.36859216  .00000928  00000-0  76360-4 0  9992,2 52089  53.2181  28.0346 0001580  82.6742 277.4429 15.08844657101647,6917.866,95.437,540.824,538.638,0.0
